STARLINK-31240          
1 59041U 24038U   26068.22211088  .00000450  00000+0  25888-4 0  9995
2 59041  43.0041  26.4720 0001188 264.6648  95.4068 15.27580751114726
HYPERFIELD-1A           
1 60562U 24149CY  26068.76488211  .00008569  00000+0  30052-3 0  9998
2 60562  97.3842 149.5066 0003865 313.7844  46.3076 15.29681349 86836
