[{"OBJECT_NAME":"STARLINK-31240","OBJECT_ID":"2024-038U","EPOCH":"2026-03-09T05:19:50.380032","MEAN_MOTION":15.27580751,"ECCENTRICITY":0.0001188,"INCLINATION":43.0041,"RA_OF_ASC_NODE":26.472,"ARG_OF_PERICENTER":264.6648,"MEAN_ANOMALY":95.4068,"EPHEMERIS_TYPE":0,"CLASSIFICATION_TYPE":"U","NORAD_CAT_ID":59041,"ELEMENT_SET_NO":999,"REV_AT_EPOCH":11472,"BSTAR":2.5888392e-5,"MEAN_MOTION_DOT":4.5e-6,"MEAN_MOTION_DDOT":0},{"OBJECT_NAME":"HYPERFIELD-1A","OBJECT_ID":"2024-149CY","EPOCH":"2026-03-09T18:21:25.814304","MEAN_MOTION":15.29681349,"ECCENTRICITY":0.00038648,"INCLINATION":97.3842,"RA_OF_ASC_NODE":149.5066,"ARG_OF_PERICENTER":313.7844,"MEAN_ANOMALY":46.3076,"EPHEMERIS_TYPE":0,"CLASSIFICATION_TYPE":"U","NORAD_CAT_ID":60562,"ELEMENT_SET_NO":999,"REV_AT_EPOCH":8683,"BSTAR":0.00030052114,"MEAN_MOTION_DOT":8.569e-5,"MEAN_MOTION_DDOT":0}]
